{"type": "FeatureCollection", "features": [{"type": "Feature", "properties": {"ref": "40059A00609001", "nombre": "Camino Salinero", "tipo": "camino", "clase": "camino", "municipio": "Cerezo de Abajo", "area_m2": 2773, "fuente": "Catastro · parcela de dominio público", "nombre_catastro": "Camino del Salinero"}, "geometry": {"type": "Polygon", "coordinates": [[[-3.599129, 41.215805], [-3.59916, 41.215816], [-3.599088, 41.215893], [-3.599059, 41.215925], [-3.598845, 41.216172], [-3.598736, 41.216298], [-3.598585, 41.216487], [-3.59856, 41.216518], [-3.598505, 41.216587], [-3.59849, 41.216608], [-3.598317, 41.216832], [-3.598154, 41.217042], [-3.598008, 41.217217], [-3.597893, 41.217335], [-3.59787, 41.217359], [-3.597739, 41.217473], [-3.597611, 41.217566], [-3.5975, 41.217633], [-3.597484, 41.217642], [-3.597357, 41.217708], [-3.597231, 41.217771], [-3.597105, 41.217835], [-3.596984, 41.217898], [-3.596875, 41.217957], [-3.596779, 41.218012], [-3.596697, 41.218064], [-3.596626, 41.218113], [-3.596564, 41.218162], [-3.596509, 41.218213], [-3.596457, 41.218273], [-3.596405, 41.218344], [-3.596352, 41.218426], [-3.596305, 41.2185], [-3.596293, 41.218521], [-3.596272, 41.218555], [-3.596227, 41.218627], [-3.59621, 41.218659], [-3.596189, 41.218698], [-3.596168, 41.218734], [-3.596163, 41.218743], [-3.596108, 41.218865], [-3.596066, 41.21899], [-3.596034, 41.219118], [-3.595999, 41.219246], [-3.595994, 41.219292], [-3.595995, 41.219297], [-3.595904, 41.219288], [-3.595915, 41.219273], [-3.595924, 41.219253], [-3.595932, 41.219234], [-3.595966, 41.219107], [-3.595999, 41.218978], [-3.596041, 41.218851], [-3.596098, 41.218726], [-3.596115, 41.218697], [-3.596138, 41.218655], [-3.596165, 41.218607], [-3.596231, 41.218499], [-3.596291, 41.218402], [-3.596345, 41.218317], [-3.596399, 41.218245], [-3.596454, 41.218182], [-3.596477, 41.21816], [-3.596513, 41.218128], [-3.596577, 41.218077], [-3.59665, 41.218025], [-3.596736, 41.217973], [-3.596833, 41.217916], [-3.596945, 41.217855], [-3.597066, 41.217792], [-3.597191, 41.217729], [-3.597273, 41.217688], [-3.597317, 41.217667], [-3.597441, 41.217601], [-3.597499, 41.217567], [-3.597565, 41.217526], [-3.597645, 41.217469], [-3.59769, 41.217436], [-3.597819, 41.217325], [-3.597952, 41.217185], [-3.597985, 41.217146], [-3.598096, 41.217013], [-3.598259, 41.216805], [-3.598447, 41.21656], [-3.59848, 41.216519], [-3.598502, 41.216491], [-3.598679, 41.21627], [-3.598862, 41.216058], [-3.5989, 41.216015], [-3.598943, 41.215964], [-3.599002, 41.215896], [-3.59903, 41.215866], [-3.599099, 41.215792], [-3.599129, 41.215805]]]}}, {"type": "Feature", "properties": {"ref": "40059A00709009", "nombre": "Camino Salinero", "tipo": "camino", "clase": "camino", "municipio": "Cerezo de Abajo", "area_m2": 6270, "fuente": "Catastro · parcela de dominio público", "nombre_catastro": "Camino del Salinero"}, "geometry": {"type": "Polygon", "coordinates": [[[-3.608897, 41.209619], [-3.608923, 41.209638], [-3.608521, 41.209778], [-3.60805, 41.20993], [-3.607685, 41.210043], [-3.607568, 41.21008], [-3.607124, 41.210217], [-3.607024, 41.210247], [-3.606743, 41.210333], [-3.606447, 41.210423], [-3.606246, 41.210487], [-3.606119, 41.210534], [-3.606036, 41.210577], [-3.605972, 41.210631], [-3.605936, 41.210674], [-3.60591, 41.210707], [-3.605885, 41.210748], [-3.60588, 41.210757], [-3.605842, 41.210818], [-3.605758, 41.21097], [-3.605665, 41.211137], [-3.605576, 41.21129], [-3.605473, 41.211417], [-3.605236, 41.211602], [-3.604803, 41.211891], [-3.604716, 41.211948], [-3.604124, 41.212326], [-3.603831, 41.212514], [-3.603796, 41.212537], [-3.603515, 41.212715], [-3.603274, 41.212866], [-3.602775, 41.213182], [-3.602299, 41.213481], [-3.601809, 41.213788], [-3.601661, 41.213881], [-3.601629, 41.2139], [-3.601577, 41.213933], [-3.601556, 41.213945], [-3.601524, 41.213965], [-3.601134, 41.214207], [-3.600715, 41.214464], [-3.600459, 41.214622], [-3.600266, 41.214755], [-3.60018, 41.214829], [-3.600015, 41.21497], [-3.599872, 41.215104], [-3.59953, 41.215421], [-3.59916, 41.215816], [-3.599129, 41.215805], [-3.599099, 41.215792], [-3.599474, 41.21539], [-3.599965, 41.214936], [-3.600218, 41.214718], [-3.600414, 41.214585], [-3.600671, 41.214425], [-3.600832, 41.214327], [-3.60109, 41.214168], [-3.601336, 41.214015], [-3.60166, 41.213814], [-3.601763, 41.213749], [-3.601951, 41.213632], [-3.602672, 41.213179], [-3.602729, 41.213144], [-3.603273, 41.2128], [-3.603329, 41.212764], [-3.603687, 41.212537], [-3.603783, 41.212477], [-3.603937, 41.212378], [-3.604018, 41.212326], [-3.604335, 41.212125], [-3.604666, 41.211913], [-3.604733, 41.211868], [-3.605182, 41.21157], [-3.605417, 41.211388], [-3.605469, 41.211323], [-3.605517, 41.211263], [-3.605605, 41.211112], [-3.605697, 41.210945], [-3.605782, 41.210792], [-3.605854, 41.210677], [-3.605919, 41.210597], [-3.605989, 41.210539], [-3.606078, 41.210492], [-3.606211, 41.210442], [-3.606417, 41.210377], [-3.606715, 41.210286], [-3.607023, 41.210192], [-3.607097, 41.210169], [-3.607461, 41.210057], [-3.607541, 41.210033], [-3.607896, 41.209923], [-3.608021, 41.209883], [-3.608436, 41.209749], [-3.60849, 41.209732], [-3.608869, 41.2096], [-3.608897, 41.209619]]]}}, {"type": "Feature", "properties": {"ref": "40059A00709010", "nombre": "Camino Salinero", "tipo": "camino", "clase": "camino", "municipio": "Cerezo de Abajo", "area_m2": 1716, "fuente": "Catastro · parcela de dominio público", "nombre_catastro": "Camino del Salinero"}, "geometry": {"type": "Polygon", "coordinates": [[[-3.612262, 41.207392], [-3.612271, 41.207399], [-3.612279, 41.207407], [-3.612282, 41.207409], [-3.612284, 41.20741], [-3.612043, 41.207504], [-3.611815, 41.207617], [-3.61154, 41.207813], [-3.611314, 41.208003], [-3.611245, 41.208061], [-3.611102, 41.208186], [-3.610951, 41.208318], [-3.610781, 41.208459], [-3.610672, 41.208548], [-3.610633, 41.208579], [-3.610417, 41.208746], [-3.610185, 41.208918], [-3.609975, 41.209067], [-3.609785, 41.209196], [-3.609715, 41.209242], [-3.609689, 41.209225], [-3.609661, 41.209209], [-3.609741, 41.209157], [-3.609929, 41.209028], [-3.610136, 41.20888], [-3.610369, 41.20871], [-3.610537, 41.208579], [-3.610623, 41.208512], [-3.610669, 41.208474], [-3.610901, 41.208283], [-3.611196, 41.208024], [-3.611493, 41.207774], [-3.611653, 41.207662], [-3.611696, 41.207632], [-3.611773, 41.207577], [-3.612008, 41.207459], [-3.612238, 41.207369], [-3.612256, 41.207386], [-3.612262, 41.207392]]]}}, {"type": "Feature", "properties": {"ref": "40223A01309006", "nombre": "Camino Viejo Siguero-Villarejo", "tipo": "camino", "clase": "camino", "municipio": "Santo Tomé del Puerto", "area_m2": 5974, "fuente": "Catastro · parcela de dominio público", "nombre_catastro": "Camino Viejo Siguero-Villarejo"}, "geometry": {"type": "Polygon", "coordinates": [[[-3.60815, 41.187089], [-3.607972, 41.186984], [-3.607958, 41.186981], [-3.607895, 41.186975], [-3.60782, 41.186973], [-3.607796, 41.186974], [-3.607739, 41.186976], [-3.607609, 41.186983], [-3.607532, 41.186987], [-3.607508, 41.186988], [-3.607482, 41.18699], [-3.607351, 41.187], [-3.607249, 41.187011], [-3.607198, 41.187017], [-3.607122, 41.187025], [-3.607002, 41.18704], [-3.606896, 41.187053], [-3.606741, 41.187071], [-3.606579, 41.187093], [-3.606545, 41.187097], [-3.606433, 41.187112], [-3.606375, 41.187119], [-3.606329, 41.187126], [-3.606277, 41.187131], [-3.606185, 41.187145], [-3.606092, 41.187159], [-3.605977, 41.187178], [-3.605845, 41.187199], [-3.605748, 41.187217], [-3.605606, 41.187243], [-3.605589, 41.187246], [-3.605468, 41.187265], [-3.605388, 41.187278], [-3.605346, 41.187285], [-3.605177, 41.187315], [-3.604998, 41.187354], [-3.604917, 41.187371], [-3.604868, 41.18738], [-3.604771, 41.1874], [-3.604679, 41.187419], [-3.604627, 41.18743], [-3.604543, 41.187447], [-3.604426, 41.187471], [-3.60436, 41.187484], [-3.604235, 41.187514], [-3.604201, 41.187523], [-3.604019, 41.187573], [-3.603839, 41.187622], [-3.603805, 41.187632], [-3.603713, 41.187656], [-3.603565, 41.187695], [-3.603438, 41.187728], [-3.603412, 41.187735], [-3.603389, 41.187741], [-3.603363, 41.187747], [-3.603238, 41.18778], [-3.60312, 41.187812], [-3.603042, 41.187836], [-3.602945, 41.187866], [-3.602843, 41.187906], [-3.602746, 41.187946], [-3.602632, 41.187994], [-3.602577, 41.188016], [-3.602516, 41.188038], [-3.602461, 41.188056], [-3.602373, 41.18808], [-3.602313, 41.188093], [-3.60225, 41.188105], [-3.602183, 41.188112], [-3.602107, 41.188118], [-3.602024, 41.188123], [-3.601898, 41.188127], [-3.601821, 41.188134], [-3.601744, 41.188143], [-3.601679, 41.188153], [-3.601619, 41.188166], [-3.601521, 41.188189], [-3.601444, 41.188211], [-3.601369, 41.188233], [-3.601299, 41.188259], [-3.601238, 41.188283], [-3.601231, 41.188286], [-3.601191, 41.188304], [-3.601132, 41.188325], [-3.601069, 41.188355], [-3.601016, 41.188385], [-3.600944, 41.188436], [-3.60089, 41.188476], [-3.600867, 41.188491], [-3.600817, 41.188507], [-3.600767, 41.188528], [-3.600717, 41.188557], [-3.600686, 41.18858], [-3.600677, 41.188589], [-3.600646, 41.188622], [-3.600607, 41.188666], [-3.600573, 41.188702], [-3.600537, 41.188738], [-3.600502, 41.188761], [-3.600483, 41.188773], [-3.600458, 41.18879], [-3.600399, 41.188829], [-3.600322, 41.188868], [-3.600289, 41.188896], [-3.60026, 41.18892], [-3.600162, 41.18899], [-3.600117, 41.189025], [-3.600094, 41.189044], [-3.600064, 41.189077], [-3.600042, 41.189106], [-3.600031, 41.189131], [-3.60002, 41.189178], [-3.599916, 41.189231], [-3.599794, 41.189293], [-3.599738, 41.189321], [-3.599644, 41.189366], [-3.599548, 41.189412], [-3.59947, 41.189446], [-3.599386, 41.189478], [-3.599315, 41.189506], [-3.599268, 41.189519], [-3.599209, 41.189547], [-3.599169, 41.189566], [-3.599112, 41.189586], [-3.599038, 41.189613], [-3.598969, 41.189632], [-3.598938, 41.189641], [-3.598903, 41.18965], [-3.598892, 41.189653], [-3.598847, 41.189669], [-3.598771, 41.189696], [-3.598697, 41.189728], [-3.598634, 41.189758], [-3.598613, 41.18977], [-3.59859, 41.189782], [-3.598531, 41.189814], [-3.598448, 41.189852], [-3.598343, 41.189891], [-3.598267, 41.189919], [-3.598231, 41.189935], [-3.598179, 41.189958], [-3.598063, 41.190012], [-3.59791, 41.190081], [-3.597809, 41.190129], [-3.597717, 41.190172], [-3.597605, 41.190229], [-3.597544, 41.190261], [-3.597489, 41.19029], [-3.597402, 41.190339], [-3.597289, 41.190405], [-3.597221, 41.190441], [-3.597177, 41.19047], [-3.597137, 41.190489], [-3.597043, 41.190532], [-3.596954, 41.190574], [-3.596857, 41.190622], [-3.59679, 41.190661], [-3.596734, 41.1907], [-3.596696, 41.190725], [-3.596642, 41.190757], [-3.596579, 41.190792], [-3.596506, 41.190828], [-3.596412, 41.190872], [-3.596366, 41.190891], [-3.596298, 41.190916], [-3.596247, 41.190935], [-3.596165, 41.190957], [-3.596087, 41.190978], [-3.596018, 41.191001], [-3.595948, 41.191014], [-3.595857, 41.191033], [-3.595644, 41.191083], [-3.595503, 41.191111], [-3.595351, 41.191146], [-3.595172, 41.191183], [-3.595108, 41.191198], [-3.595087, 41.191203], [-3.594925, 41.191238], [-3.594883, 41.191247], [-3.594777, 41.19127], [-3.594749, 41.191276], [-3.594593, 41.191311], [-3.594565, 41.191317], [-3.594361, 41.191358], [-3.594338, 41.191362], [-3.594297, 41.191369], [-3.594112, 41.191398], [-3.594004, 41.191412], [-3.59395, 41.191417], [-3.593885, 41.191423], [-3.593715, 41.191437], [-3.593568, 41.191438], [-3.593473, 41.191434], [-3.593299, 41.191431], [-3.593134, 41.191418], [-3.59297, 41.191403], [-3.593018, 41.191387], [-3.593173, 41.191399], [-3.593242, 41.191402], [-3.593334, 41.191405], [-3.593427, 41.191408], [-3.59356, 41.191408], [-3.593685, 41.191408], [-3.593688, 41.191408], [-3.593816, 41.191402], [-3.593943, 41.191391], [-3.594063, 41.191378], [-3.594085, 41.191374], [-3.594214, 41.191359], [-3.594352, 41.191336], [-3.594522, 41.191304], [-3.594547, 41.191298], [-3.594739, 41.191259], [-3.594747, 41.191257], [-3.594929, 41.191215], [-3.595088, 41.191181], [-3.595107, 41.191176], [-3.595216, 41.191152], [-3.595273, 41.191139], [-3.595393, 41.191111], [-3.595479, 41.191092], [-3.595594, 41.191067], [-3.59565, 41.191055], [-3.5957, 41.191043], [-3.595827, 41.191013], [-3.595829, 41.191013], [-3.595966, 41.190982], [-3.596028, 41.190967], [-3.596104, 41.190947], [-3.596201, 41.19092], [-3.596231, 41.190911], [-3.596296, 41.190892], [-3.596367, 41.190866], [-3.596402, 41.190854], [-3.596513, 41.190803], [-3.596592, 41.190761], [-3.59666, 41.190723], [-3.596694, 41.190699], [-3.596723, 41.190678], [-3.596751, 41.190656], [-3.596769, 41.190643], [-3.596831, 41.190613], [-3.596931, 41.190561], [-3.596948, 41.190552], [-3.596999, 41.190527], [-3.597139, 41.190456], [-3.597266, 41.190391], [-3.597337, 41.190353], [-3.597341, 41.190351], [-3.597437, 41.190292], [-3.597512, 41.190247], [-3.597601, 41.190196], [-3.597667, 41.19016], [-3.597699, 41.190142], [-3.597764, 41.190109], [-3.597804, 41.190089], [-3.597812, 41.190084], [-3.597818, 41.190081], [-3.597832, 41.190071], [-3.597859, 41.190055], [-3.597926, 41.190012], [-3.597966, 41.189981], [-3.598015, 41.189944], [-3.598061, 41.189895], [-3.5981, 41.189855], [-3.598121, 41.189822], [-3.598142, 41.189797], [-3.59815, 41.189789], [-3.59816, 41.189778], [-3.598181, 41.189763], [-3.598227, 41.189746], [-3.598345, 41.189718], [-3.598507, 41.189687], [-3.598687, 41.18965], [-3.598763, 41.189634], [-3.598945, 41.189582], [-3.599132, 41.189525], [-3.599178, 41.189513], [-3.599249, 41.189494], [-3.599354, 41.189438], [-3.599484, 41.189351], [-3.599532, 41.189316], [-3.599549, 41.189302], [-3.599567, 41.189289], [-3.59965, 41.189225], [-3.59972, 41.189176], [-3.599874, 41.189069], [-3.600022, 41.188973], [-3.600137, 41.188894], [-3.600203, 41.188849], [-3.600213, 41.188843], [-3.600323, 41.18876], [-3.600439, 41.18867], [-3.600441, 41.188669], [-3.600558, 41.188588], [-3.600648, 41.18852], [-3.600714, 41.188474], [-3.600774, 41.188439], [-3.600836, 41.188414], [-3.600892, 41.18839], [-3.600981, 41.188349], [-3.601017, 41.188324], [-3.601043, 41.188303], [-3.60106, 41.188281], [-3.601064, 41.188281], [-3.601095, 41.188283], [-3.601116, 41.188281], [-3.601156, 41.188279], [-3.601207, 41.188269], [-3.60131, 41.188237], [-3.601404, 41.188208], [-3.601503, 41.188173], [-3.60157, 41.188153], [-3.601628, 41.188138], [-3.601698, 41.188126], [-3.601724, 41.188123], [-3.601798, 41.188114], [-3.60192, 41.188109], [-3.60204, 41.188107], [-3.602128, 41.188103], [-3.602236, 41.188091], [-3.602364, 41.188062], [-3.602487, 41.188022], [-3.60256, 41.187996], [-3.602603, 41.18798], [-3.602666, 41.187953], [-3.602709, 41.187933], [-3.602794, 41.187897], [-3.602813, 41.187891], [-3.602862, 41.187873], [-3.602907, 41.187855], [-3.602981, 41.187832], [-3.603076, 41.187802], [-3.60309, 41.187798], [-3.603202, 41.187762], [-3.603341, 41.187727], [-3.603361, 41.187721], [-3.603385, 41.187716], [-3.603409, 41.187709], [-3.603458, 41.187696], [-3.603466, 41.187695], [-3.603685, 41.187639], [-3.603844, 41.187597], [-3.60393, 41.187575], [-3.603982, 41.187562], [-3.604148, 41.18752], [-3.604281, 41.187485], [-3.604358, 41.187465], [-3.604452, 41.187444], [-3.604581, 41.187419], [-3.604637, 41.187407], [-3.604725, 41.18739], [-3.604831, 41.187369], [-3.604961, 41.187344], [-3.604984, 41.187338], [-3.605188, 41.187295], [-3.605377, 41.187258], [-3.605426, 41.187247], [-3.605602, 41.187211], [-3.605669, 41.1872], [-3.605756, 41.187185], [-3.605925, 41.187158], [-3.606014, 41.187144], [-3.606068, 41.187135], [-3.60621, 41.187113], [-3.606351, 41.187096], [-3.606401, 41.18709], [-3.606619, 41.187064], [-3.606839, 41.187039], [-3.606898, 41.187033], [-3.607001, 41.187024], [-3.60716, 41.187004], [-3.607279, 41.186993], [-3.607428, 41.186975], [-3.607531, 41.186963], [-3.60755, 41.186962], [-3.607763, 41.186951], [-3.607857, 41.186949], [-3.607907, 41.186952], [-3.607976, 41.186966], [-3.60802, 41.186977], [-3.608147, 41.187037], [-3.60815, 41.187089]]]}}, {"type": "Feature", "properties": {"ref": "40223A00109007", "nombre": "Cañada de Ganados", "tipo": "via pecuaria", "clase": "cañada", "municipio": "Santo Tomé del Puerto", "area_m2": 44856, "fuente": "Catastro · parcela de dominio público", "nombre_catastro": "Cañada de Ganados"}, "geometry": {"type": "Polygon", "coordinates": [[[-3.595641, 41.200436], [-3.595498, 41.200412], [-3.595341, 41.200376], [-3.595237, 41.200332], [-3.595162, 41.200284], [-3.595106, 41.200236], [-3.595042, 41.200206], [-3.594983, 41.200207], [-3.594928, 41.200215], [-3.594788, 41.200063], [-3.594596, 41.199885], [-3.5945, 41.199743], [-3.594444, 41.199636], [-3.594399, 41.199577], [-3.594299, 41.19946], [-3.594202, 41.199371], [-3.594132, 41.199325], [-3.593993, 41.199256], [-3.593901, 41.199177], [-3.59384, 41.199073], [-3.593761, 41.198927], [-3.593673, 41.198806], [-3.593496, 41.198592], [-3.593242, 41.198384], [-3.59279, 41.19801], [-3.592555, 41.197797], [-3.592255, 41.197514], [-3.592047, 41.197342], [-3.591906, 41.197227], [-3.591788, 41.197118], [-3.591705, 41.197025], [-3.591467, 41.196759], [-3.591301, 41.196622], [-3.591113, 41.196481], [-3.590931, 41.196355], [-3.590799, 41.196275], [-3.590672, 41.196215], [-3.590582, 41.196164], [-3.590579, 41.196084], [-3.590565, 41.195933], [-3.59056, 41.195885], [-3.590541, 41.195851], [-3.590517, 41.195824], [-3.590486, 41.195808], [-3.590439, 41.195785], [-3.590387, 41.195759], [-3.59032, 41.195719], [-3.590255, 41.195678], [-3.590201, 41.195641], [-3.590165, 41.195612], [-3.590152, 41.195598], [-3.590117, 41.195555], [-3.590093, 41.195515], [-3.590063, 41.195456], [-3.590053, 41.195428], [-3.590031, 41.195389], [-3.590099, 41.195423], [-3.590165, 41.195472], [-3.590198, 41.195508], [-3.590259, 41.195579], [-3.590294, 41.195604], [-3.59037, 41.195661], [-3.590454, 41.195694], [-3.590544, 41.195728], [-3.590604, 41.19574], [-3.590645, 41.195759], [-3.590699, 41.195787], [-3.590742, 41.195813], [-3.590779, 41.195849], [-3.590818, 41.195881], [-3.590863, 41.195906], [-3.590941, 41.195941], [-3.591025, 41.195971], [-3.591093, 41.195979], [-3.591168, 41.19598], [-3.591225, 41.195978], [-3.591318, 41.195968], [-3.591436, 41.19596], [-3.591578, 41.195942], [-3.591642, 41.195932], [-3.591789, 41.196029], [-3.591979, 41.196125], [-3.592073, 41.196182], [-3.592211, 41.196286], [-3.5923, 41.196354], [-3.592364, 41.196403], [-3.592418, 41.196438], [-3.592476, 41.196467], [-3.592531, 41.196492], [-3.59262, 41.196526], [-3.592725, 41.196572], [-3.59287, 41.196639], [-3.592985, 41.19669], [-3.593082, 41.196744], [-3.593183, 41.196814], [-3.593244, 41.196908], [-3.593313, 41.196992], [-3.593393, 41.197078], [-3.593465, 41.197151], [-3.593542, 41.197221], [-3.593654, 41.197407], [-3.593756, 41.197567], [-3.593932, 41.197877], [-3.593947, 41.197903], [-3.593991, 41.197974], [-3.594049, 41.198066], [-3.594065, 41.198092], [-3.594087, 41.198128], [-3.594139, 41.198235], [-3.594156, 41.198267], [-3.594172, 41.198298], [-3.594223, 41.198394], [-3.594226, 41.1984], [-3.594285, 41.198533], [-3.594291, 41.198549], [-3.594338, 41.198651], [-3.594373, 41.198721], [-3.594415, 41.198795], [-3.594472, 41.198906], [-3.594577, 41.19908], [-3.594604, 41.199119], [-3.594645, 41.199184], [-3.59474, 41.19932], [-3.594801, 41.199398], [-3.594857, 41.199469], [-3.594984, 41.199631], [-3.595007, 41.199658], [-3.595066, 41.199729], [-3.595177, 41.199859], [-3.595313, 41.200034], [-3.595419, 41.200166], [-3.595525, 41.200296], [-3.595641, 41.200436]]]}}, {"type": "Feature", "properties": {"ref": "40223A00109008", "nombre": "Cañada de Ganados", "tipo": "via pecuaria", "clase": "cañada", "municipio": "Santo Tomé del Puerto", "area_m2": 48382, "fuente": "Catastro · parcela de dominio público", "nombre_catastro": "Cañada de Ganados"}, "geometry": {"type": "Polygon", "coordinates": [[[-3.602475, 41.205089], [-3.602887, 41.205325], [-3.6027, 41.205437], [-3.602637, 41.205473], [-3.602367, 41.205633], [-3.602259, 41.205698], [-3.602217, 41.205674], [-3.602146, 41.20563], [-3.602049, 41.205558], [-3.601961, 41.20551], [-3.601896, 41.205482], [-3.601795, 41.205443], [-3.601718, 41.205416], [-3.601629, 41.20537], [-3.601541, 41.205323], [-3.601475, 41.205277], [-3.601389, 41.205215], [-3.601273, 41.205135], [-3.601109, 41.205027], [-3.600958, 41.204943], [-3.600827, 41.204876], [-3.600694, 41.204809], [-3.600561, 41.204741], [-3.600405, 41.204669], [-3.600311, 41.204625], [-3.60021, 41.204577], [-3.600129, 41.204544], [-3.600017, 41.204491], [-3.59992, 41.204443], [-3.599752, 41.204357], [-3.599595, 41.204276], [-3.599481, 41.204209], [-3.599356, 41.204137], [-3.599267, 41.204094], [-3.599208, 41.204061], [-3.599152, 41.204028], [-3.599121, 41.204006], [-3.599081, 41.20398], [-3.599032, 41.203952], [-3.598962, 41.203918], [-3.598896, 41.203881], [-3.598832, 41.203836], [-3.598779, 41.2038], [-3.598709, 41.203763], [-3.598642, 41.203735], [-3.598528, 41.203669], [-3.598461, 41.20363], [-3.598383, 41.203571], [-3.598283, 41.203474], [-3.598188, 41.203361], [-3.598118, 41.203276], [-3.59794, 41.203082], [-3.597728, 41.202876], [-3.597599, 41.202769], [-3.597491, 41.2027], [-3.597399, 41.202623], [-3.597326, 41.202512], [-3.597265, 41.202423], [-3.597186, 41.202336], [-3.59708, 41.202225], [-3.596922, 41.202102], [-3.596636, 41.20185], [-3.596399, 41.201661], [-3.596176, 41.201438], [-3.595774, 41.201034], [-3.59535, 41.200634], [-3.595004, 41.200296], [-3.594959, 41.200247], [-3.594988, 41.200243], [-3.595029, 41.200242], [-3.595076, 41.200264], [-3.595128, 41.200309], [-3.59521, 41.200362], [-3.595323, 41.200409], [-3.595485, 41.200447], [-3.59569, 41.200471], [-3.595781, 41.200565], [-3.595898, 41.200688], [-3.595987, 41.200771], [-3.596096, 41.200876], [-3.596222, 41.200967], [-3.596348, 41.201048], [-3.596428, 41.2011], [-3.596646, 41.201248], [-3.596715, 41.201297], [-3.596864, 41.201391], [-3.596956, 41.201449], [-3.597043, 41.201529], [-3.597066, 41.20155], [-3.597127, 41.201595], [-3.597185, 41.20164], [-3.597248, 41.201688], [-3.59726, 41.201698], [-3.597322, 41.201742], [-3.597395, 41.201794], [-3.597404, 41.201803], [-3.597469, 41.201856], [-3.597504, 41.201884], [-3.597637, 41.201975], [-3.597711, 41.20203], [-3.597784, 41.202085], [-3.597897, 41.202188], [-3.59791, 41.2022], [-3.598012, 41.202288], [-3.598099, 41.202342], [-3.598135, 41.202364], [-3.598215, 41.202424], [-3.598244, 41.202445], [-3.598321, 41.202514], [-3.598341, 41.202532], [-3.598479, 41.20263], [-3.598559, 41.202699], [-3.598655, 41.202785], [-3.598809, 41.202893], [-3.598851, 41.202933], [-3.598874, 41.202956], [-3.599062, 41.203117], [-3.599115, 41.203162], [-3.59921, 41.203228], [-3.599274, 41.20327], [-3.599479, 41.203404], [-3.599738, 41.203572], [-3.599809, 41.203618], [-3.600103, 41.203811], [-3.600152, 41.203842], [-3.600254, 41.203908], [-3.600284, 41.203928], [-3.600333, 41.203959], [-3.600387, 41.203991], [-3.600487, 41.204051], [-3.600608, 41.204125], [-3.600626, 41.204134], [-3.600843, 41.204252], [-3.600875, 41.204268], [-3.601062, 41.20436], [-3.60111, 41.204383], [-3.601241, 41.204449], [-3.601288, 41.204472], [-3.601333, 41.204495], [-3.601377, 41.20452], [-3.601519, 41.204598], [-3.601641, 41.204662], [-3.601936, 41.204814], [-3.601993, 41.204843], [-3.602087, 41.204892], [-3.602234, 41.204966], [-3.602371, 41.205036], [-3.602475, 41.205089]]]}}, {"type": "Feature", "properties": {"ref": "40223A01009002", "nombre": "Cañada de Ganados", "tipo": "via pecuaria", "clase": "cañada", "municipio": "Santo Tomé del Puerto", "area_m2": 61276, "fuente": "Catastro · parcela de dominio público", "nombre_catastro": "Cañada de Ganados"}, "geometry": {"type": "Polygon", "coordinates": [[[-3.55973, 41.182124], [-3.559763, 41.182154], [-3.559705, 41.18226], [-3.559673, 41.182294], [-3.559375, 41.182604], [-3.559192, 41.182741], [-3.559185, 41.182747], [-3.55912, 41.182788], [-3.558719, 41.183083], [-3.558125, 41.183682], [-3.557454, 41.184136], [-3.556406, 41.18462], [-3.555678, 41.184925], [-3.555666, 41.184929], [-3.555309, 41.185097], [-3.555218, 41.185139], [-3.555001, 41.18524], [-3.554889, 41.185292], [-3.554867, 41.185302], [-3.554584, 41.18544], [-3.554547, 41.185452], [-3.554494, 41.18547], [-3.55439, 41.185485], [-3.554372, 41.185487], [-3.554346, 41.185491], [-3.554301, 41.185504], [-3.554178, 41.185555], [-3.554068, 41.185617], [-3.553854, 41.185735], [-3.553676, 41.185835], [-3.553624, 41.185864], [-3.553485, 41.185938], [-3.553471, 41.185945], [-3.553369, 41.186023], [-3.553318, 41.18607], [-3.553114, 41.186258], [-3.553097, 41.186267], [-3.552227, 41.186665], [-3.552088, 41.186717], [-3.552067, 41.186726], [-3.55205, 41.186722], [-3.552032, 41.186718], [-3.552024, 41.186711], [-3.552011, 41.186698], [-3.552002, 41.18669], [-3.551993, 41.186685], [-3.551982, 41.18668], [-3.551963, 41.186677], [-3.551945, 41.186675], [-3.551927, 41.186673], [-3.551908, 41.186668], [-3.551885, 41.186662], [-3.551864, 41.186654], [-3.551848, 41.186648], [-3.551827, 41.186644], [-3.55181, 41.186642], [-3.5518, 41.186637], [-3.551792, 41.186629], [-3.551792, 41.186621], [-3.551792, 41.186611], [-3.551787, 41.186599], [-3.551774, 41.18659], [-3.551762, 41.186581], [-3.551755, 41.186573], [-3.551749, 41.186565], [-3.551738, 41.186559], [-3.551717, 41.186555], [-3.55169, 41.186551], [-3.551661, 41.18655], [-3.551629, 41.186548], [-3.551614, 41.186544], [-3.551605, 41.186536], [-3.551597, 41.186528], [-3.55159, 41.186523], [-3.551579, 41.186518], [-3.55156, 41.186514], [-3.551545, 41.18651], [-3.551533, 41.186507], [-3.551523, 41.186502], [-3.551512, 41.186494], [-3.551495, 41.186479], [-3.551471, 41.186457], [-3.55146, 41.186448], [-3.551449, 41.18644], [-3.551439, 41.186432], [-3.551431, 41.186429], [-3.551425, 41.186428], [-3.551419, 41.186428], [-3.551419, 41.186414], [-3.551414, 41.186047], [-3.551526, 41.186046], [-3.551749, 41.186051], [-3.551781, 41.186054], [-3.551815, 41.186057], [-3.551985, 41.186045], [-3.552129, 41.186024], [-3.552177, 41.186016], [-3.552246, 41.185992], [-3.552279, 41.185969], [-3.55231, 41.185929], [-3.552328, 41.185906], [-3.552374, 41.185849], [-3.552447, 41.185795], [-3.5526, 41.18568], [-3.552804, 41.185551], [-3.552966, 41.185448], [-3.552976, 41.185441], [-3.553208, 41.185286], [-3.553291, 41.18523], [-3.553365, 41.185187], [-3.553571, 41.185083], [-3.553629, 41.185056], [-3.553785, 41.184986], [-3.553961, 41.184902], [-3.554133, 41.18482], [-3.554163, 41.184809], [-3.554381, 41.184726], [-3.554549, 41.184662], [-3.554568, 41.184654], [-3.554822, 41.184552], [-3.554983, 41.184488], [-3.555011, 41.184477], [-3.555492, 41.184282], [-3.555615, 41.184221], [-3.555656, 41.184201], [-3.555834, 41.184123], [-3.555862, 41.184111], [-3.55611, 41.184004], [-3.556174, 41.183976], [-3.556345, 41.183887], [-3.556475, 41.183825], [-3.556573, 41.183776], [-3.556717, 41.183705], [-3.556943, 41.183615], [-3.556971, 41.183597], [-3.556984, 41.18359], [-3.557017, 41.183575], [-3.557158, 41.183472], [-3.55727, 41.183374], [-3.557376, 41.183282], [-3.557394, 41.183266], [-3.557556, 41.18313], [-3.557566, 41.183123], [-3.557708, 41.183004], [-3.557729, 41.182987], [-3.55786, 41.182863], [-3.557997, 41.182752], [-3.558127, 41.182628], [-3.558183, 41.182578], [-3.558344, 41.182437], [-3.558387, 41.182404], [-3.558449, 41.182358], [-3.558611, 41.182252], [-3.558632, 41.182239], [-3.558811, 41.182106], [-3.55885, 41.182045], [-3.558895, 41.181997], [-3.558973, 41.18187], [-3.559093, 41.181691], [-3.559564, 41.182], [-3.55973, 41.182124]]]}}, {"type": "Feature", "properties": {"ref": "40223A01209009", "nombre": "Cañada de Ganados", "tipo": "via pecuaria", "clase": "cañada", "municipio": "Santo Tomé del Puerto", "area_m2": 12836, "fuente": "Catastro · parcela de dominio público", "nombre_catastro": "Cañada de Ganados"}, "geometry": {"type": "Polygon", "coordinates": [[[-3.591608, 41.195911], [-3.591642, 41.195932], [-3.591578, 41.195942], [-3.591436, 41.19596], [-3.591318, 41.195968], [-3.591225, 41.195978], [-3.591168, 41.19598], [-3.591093, 41.195979], [-3.591025, 41.195971], [-3.590941, 41.195941], [-3.590863, 41.195906], [-3.590818, 41.195881], [-3.590779, 41.195849], [-3.590742, 41.195813], [-3.590699, 41.195787], [-3.590645, 41.195759], [-3.590604, 41.19574], [-3.590544, 41.195728], [-3.590454, 41.195694], [-3.59037, 41.195661], [-3.590294, 41.195604], [-3.590259, 41.195579], [-3.590198, 41.195508], [-3.590165, 41.195472], [-3.590099, 41.195423], [-3.590031, 41.195389], [-3.590021, 41.195342], [-3.589988, 41.195209], [-3.589949, 41.195052], [-3.589925, 41.194955], [-3.589912, 41.194893], [-3.589908, 41.194872], [-3.58989, 41.194788], [-3.58987, 41.194679], [-3.589858, 41.194605], [-3.589849, 41.194548], [-3.589853, 41.194505], [-3.589862, 41.194462], [-3.589873, 41.194438], [-3.58989, 41.194407], [-3.589922, 41.194375], [-3.589967, 41.194335], [-3.590018, 41.194298], [-3.590077, 41.194256], [-3.590134, 41.194217], [-3.590197, 41.194181], [-3.590286, 41.194131], [-3.590365, 41.194357], [-3.590432, 41.194544], [-3.590441, 41.19457], [-3.590463, 41.194582], [-3.590499, 41.194704], [-3.590531, 41.19477], [-3.590569, 41.194852], [-3.590615, 41.194923], [-3.590658, 41.194973], [-3.590695, 41.195004], [-3.590779, 41.195063], [-3.590908, 41.195147], [-3.591015, 41.195215], [-3.591074, 41.195249], [-3.591104, 41.195264], [-3.591143, 41.195285], [-3.591192, 41.19532], [-3.591227, 41.195357], [-3.591276, 41.195424], [-3.591322, 41.195504], [-3.591337, 41.195537], [-3.591381, 41.195629], [-3.591417, 41.195715], [-3.591445, 41.195774], [-3.591465, 41.1958], [-3.591502, 41.195839], [-3.591551, 41.195879], [-3.591557, 41.195882], [-3.591602, 41.195907], [-3.591608, 41.195911]]]}}, {"type": "Feature", "properties": {"ref": "40223A01209010", "nombre": "Cañada de Ganados", "tipo": "via pecuaria", "clase": "cañada", "municipio": "Santo Tomé del Puerto", "area_m2": 18262, "fuente": "Catastro · parcela de dominio público", "nombre_catastro": "Cañada de Ganados"}, "geometry": {"type": "Polygon", "coordinates": [[[-3.590162, 41.193917], [-3.590273, 41.194096], [-3.590148, 41.194165], [-3.590061, 41.194213], [-3.590001, 41.194251], [-3.589928, 41.1943], [-3.589897, 41.194327], [-3.589875, 41.194352], [-3.589849, 41.19439], [-3.589819, 41.194445], [-3.589807, 41.19449], [-3.589803, 41.194525], [-3.589799, 41.194571], [-3.589816, 41.194647], [-3.589836, 41.194751], [-3.589844, 41.194792], [-3.589853, 41.194831], [-3.589811, 41.194787], [-3.589762, 41.194737], [-3.589709, 41.194679], [-3.589668, 41.194633], [-3.589627, 41.194581], [-3.589572, 41.194496], [-3.589519, 41.194409], [-3.589472, 41.194323], [-3.589439, 41.194256], [-3.589402, 41.194181], [-3.589388, 41.19415], [-3.589328, 41.194025], [-3.589283, 41.193914], [-3.589266, 41.19386], [-3.589253, 41.193819], [-3.589175, 41.193596], [-3.589172, 41.193584], [-3.589109, 41.193407], [-3.589093, 41.193361], [-3.589024, 41.193163], [-3.589013, 41.193132], [-3.588944, 41.192939], [-3.588892, 41.192794], [-3.588883, 41.192769], [-3.588773, 41.192514], [-3.588747, 41.192474], [-3.588712, 41.192419], [-3.588666, 41.19234], [-3.588638, 41.19229], [-3.588612, 41.192237], [-3.588585, 41.192177], [-3.588579, 41.192159], [-3.588568, 41.192124], [-3.588971, 41.192116], [-3.58928, 41.19211], [-3.589494, 41.192109], [-3.58962, 41.192367], [-3.58966, 41.192475], [-3.589666, 41.192503], [-3.58967, 41.19255], [-3.589685, 41.192609], [-3.589699, 41.192661], [-3.589711, 41.192709], [-3.589744, 41.192803], [-3.589756, 41.192836], [-3.589777, 41.19289], [-3.589804, 41.192968], [-3.589828, 41.193048], [-3.589853, 41.193132], [-3.589862, 41.193182], [-3.589881, 41.193253], [-3.58992, 41.193372], [-3.589936, 41.193419], [-3.589968, 41.193513], [-3.590022, 41.193641], [-3.590036, 41.19367], [-3.590069, 41.193741], [-3.590114, 41.193832], [-3.590162, 41.193917]]]}}, {"type": "Feature", "properties": {"ref": "40223A01509010", "nombre": "Cañada de Ganados", "tipo": "via pecuaria", "clase": "cañada", "municipio": "Santo Tomé del Puerto", "area_m2": 87149, "fuente": "Catastro · parcela de dominio público", "nombre_catastro": "Cañada de Ganados"}, "geometry": {"type": "Polygon", "coordinates": [[[-3.589289, 41.191761], [-3.58934, 41.19185], [-3.588775, 41.191854], [-3.588437, 41.19186], [-3.58838, 41.191782], [-3.588291, 41.191668], [-3.588267, 41.191641], [-3.588231, 41.1916], [-3.588183, 41.191547], [-3.588142, 41.191506], [-3.588131, 41.191493], [-3.58809, 41.19144], [-3.588054, 41.191393], [-3.588044, 41.191374], [-3.587981, 41.191273], [-3.587948, 41.191204], [-3.587926, 41.191155], [-3.587903, 41.19108], [-3.587886, 41.191013], [-3.587878, 41.190983], [-3.587861, 41.190906], [-3.587828, 41.190796], [-3.587814, 41.190754], [-3.58778, 41.190667], [-3.587753, 41.190612], [-3.587704, 41.190516], [-3.587678, 41.190471], [-3.587639, 41.190403], [-3.587578, 41.190306], [-3.587568, 41.19029], [-3.58749, 41.190176], [-3.587481, 41.190164], [-3.587395, 41.190042], [-3.587372, 41.190009], [-3.587311, 41.189924], [-3.587289, 41.189894], [-3.587237, 41.189816], [-3.587167, 41.189712], [-3.587108, 41.189629], [-3.587073, 41.189579], [-3.586989, 41.189451], [-3.586966, 41.189414], [-3.586907, 41.189323], [-3.586871, 41.189276], [-3.586823, 41.1892], [-3.586788, 41.18914], [-3.586779, 41.189126], [-3.586767, 41.189079], [-3.586763, 41.189064], [-3.586748, 41.18903], [-3.586703, 41.18893], [-3.586639, 41.188781], [-3.586567, 41.188615], [-3.586511, 41.188485], [-3.586455, 41.188355], [-3.586404, 41.188237], [-3.586371, 41.18816], [-3.586319, 41.188049], [-3.586283, 41.187973], [-3.586251, 41.187923], [-3.586207, 41.187841], [-3.586147, 41.187744], [-3.586069, 41.187601], [-3.586023, 41.187508], [-3.586001, 41.18746], [-3.585967, 41.187381], [-3.585933, 41.187284], [-3.585886, 41.187156], [-3.585872, 41.187114], [-3.585846, 41.187045], [-3.585815, 41.186959], [-3.585704, 41.186565], [-3.585637, 41.186388], [-3.585546, 41.186174], [-3.585444, 41.185975], [-3.58546, 41.185929], [-3.585475, 41.18588], [-3.585477, 41.185836], [-3.585481, 41.185756], [-3.585465, 41.185684], [-3.58545, 41.185607], [-3.585425, 41.185528], [-3.585396, 41.185451], [-3.585366, 41.185384], [-3.585308, 41.185272], [-3.585277, 41.185138], [-3.585245, 41.184995], [-3.585146, 41.184554], [-3.585108, 41.18428], [-3.585079, 41.183994], [-3.58503, 41.183712], [-3.584983, 41.183478], [-3.58485, 41.182986], [-3.584694, 41.182492], [-3.584526, 41.181989], [-3.584333, 41.181467], [-3.584113, 41.18086], [-3.583965, 41.180511], [-3.583606, 41.179731], [-3.583354, 41.179158], [-3.583167, 41.178643], [-3.583045, 41.17818], [-3.582949, 41.1777], [-3.582928, 41.177508], [-3.583092, 41.177604], [-3.583133, 41.177629], [-3.583174, 41.177653], [-3.583173, 41.177669], [-3.583172, 41.177695], [-3.583171, 41.177724], [-3.58317, 41.177745], [-3.58317, 41.177764], [-3.583175, 41.177938], [-3.583207, 41.178125], [-3.583259, 41.178332], [-3.583283, 41.178434], [-3.583356, 41.178662], [-3.583398, 41.178714], [-3.583414, 41.178734], [-3.583427, 41.178769], [-3.583451, 41.178816], [-3.583485, 41.178881], [-3.583492, 41.178893], [-3.583524, 41.178944], [-3.583579, 41.179024], [-3.583651, 41.179113], [-3.583683, 41.179168], [-3.583729, 41.179235], [-3.583792, 41.179315], [-3.583798, 41.179343], [-3.583816, 41.179394], [-3.583832, 41.17943], [-3.583861, 41.179484], [-3.583892, 41.17954], [-3.583971, 41.179652], [-3.584008, 41.17971], [-3.58406, 41.179804], [-3.584075, 41.179833], [-3.58419, 41.180065], [-3.584198, 41.180081], [-3.584275, 41.180243], [-3.584298, 41.180289], [-3.584323, 41.180332], [-3.584345, 41.180371], [-3.584408, 41.180476], [-3.584463, 41.18059], [-3.584477, 41.180621], [-3.584532, 41.180737], [-3.58454, 41.180753], [-3.584602, 41.180887], [-3.584663, 41.181035], [-3.584691, 41.181106], [-3.584711, 41.181162], [-3.584746, 41.181266], [-3.584803, 41.181494], [-3.58484, 41.181557], [-3.584852, 41.181577], [-3.584865, 41.181601], [-3.584866, 41.181604], [-3.584966, 41.181915], [-3.585088, 41.182289], [-3.585127, 41.182412], [-3.585129, 41.182415], [-3.585192, 41.182609], [-3.585209, 41.182626], [-3.585219, 41.182648], [-3.585325, 41.182894], [-3.585331, 41.182909], [-3.585412, 41.18309], [-3.585434, 41.183137], [-3.585445, 41.18316], [-3.585459, 41.183191], [-3.585462, 41.183202], [-3.585509, 41.183348], [-3.585533, 41.183409], [-3.58561, 41.18359], [-3.585616, 41.183612], [-3.585674, 41.183807], [-3.585687, 41.183837], [-3.585731, 41.183946], [-3.585772, 41.184059], [-3.585801, 41.184144], [-3.58585, 41.184287], [-3.585862, 41.184327], [-3.585926, 41.1845], [-3.585956, 41.184605], [-3.586001, 41.184739], [-3.586045, 41.184867], [-3.586067, 41.184947], [-3.586088, 41.185037], [-3.586099, 41.185104], [-3.586103, 41.185129], [-3.586106, 41.185144], [-3.586139, 41.185397], [-3.586169, 41.185627], [-3.586173, 41.185644], [-3.586198, 41.185747], [-3.586235, 41.185876], [-3.58624, 41.185888], [-3.586261, 41.185952], [-3.586301, 41.186062], [-3.586312, 41.18609], [-3.58633, 41.186139], [-3.58635, 41.18619], [-3.586363, 41.186227], [-3.58641, 41.186348], [-3.586494, 41.18655], [-3.586578, 41.186784], [-3.586596, 41.186829], [-3.586699, 41.187086], [-3.586749, 41.187205], [-3.586773, 41.187273], [-3.586812, 41.187363], [-3.586857, 41.187443], [-3.586863, 41.187456], [-3.587018, 41.187742], [-3.587033, 41.187767], [-3.587144, 41.187962], [-3.587161, 41.187993], [-3.587211, 41.188087], [-3.587301, 41.188239], [-3.587308, 41.188253], [-3.587416, 41.188442], [-3.587464, 41.188516], [-3.587494, 41.188564], [-3.587509, 41.188584], [-3.587523, 41.188607], [-3.587615, 41.18882], [-3.587822, 41.189245], [-3.587912, 41.189432], [-3.587946, 41.189503], [-3.588, 41.18961], [-3.588057, 41.18971], [-3.588111, 41.189799], [-3.588129, 41.189828], [-3.588184, 41.189912], [-3.58831, 41.190096], [-3.588335, 41.190134], [-3.588364, 41.190177], [-3.588411, 41.190252], [-3.588457, 41.190333], [-3.588501, 41.19042], [-3.588528, 41.190473], [-3.588589, 41.190614], [-3.588622, 41.190718], [-3.588643, 41.190789], [-3.588647, 41.190834], [-3.588651, 41.190875], [-3.588655, 41.190883], [-3.588666, 41.190906], [-3.588688, 41.190946], [-3.588743, 41.191018], [-3.588796, 41.191081], [-3.588805, 41.191092], [-3.588866, 41.191166], [-3.588905, 41.191212], [-3.589016, 41.191355], [-3.589095, 41.191456], [-3.589166, 41.191565], [-3.589228, 41.191653], [-3.589289, 41.191761]]]}}, {"type": "Feature", "properties": {"ref": "40059A00710030", "nombre": "Cañada Real", "tipo": "via pecuaria", "clase": "cañada", "municipio": "Cerezo de Abajo", "area_m2": 2734, "fuente": "Catastro · parcela de dominio público", "nombre_catastro": "Cañada Real"}, "geometry": {"type": "Polygon", "coordinates": [[[-3.605502, 41.207499], [-3.60563, 41.207567], [-3.604796, 41.208384], [-3.604779, 41.2084], [-3.604562, 41.20829], [-3.604582, 41.208272], [-3.605387, 41.207437], [-3.605462, 41.207477], [-3.605502, 41.207499]]]}}, {"type": "Feature", "properties": {"ref": "40059A00709011", "nombre": "Cañada Real", "tipo": "via pecuaria", "clase": "cañada", "municipio": "Cerezo de Abajo", "area_m2": 51201, "fuente": "Catastro · parcela de dominio público", "nombre_catastro": "Cañada Real"}, "geometry": {"type": "Polygon", "coordinates": [[[-3.60442, 41.206922], [-3.604142, 41.206778], [-3.603916, 41.206648], [-3.603841, 41.206606], [-3.603784, 41.206573], [-3.603512, 41.206416], [-3.603213, 41.206186], [-3.602935, 41.205972], [-3.602807, 41.205895], [-3.602582, 41.205762], [-3.602446, 41.20568], [-3.601591, 41.206239], [-3.600954, 41.206656], [-3.600837, 41.206384], [-3.600926, 41.206356], [-3.601394, 41.206209], [-3.60159, 41.206093], [-3.602219, 41.205721], [-3.602235, 41.205711], [-3.602238, 41.205709], [-3.602244, 41.205706], [-3.602259, 41.205698], [-3.602367, 41.205633], [-3.602637, 41.205473], [-3.602887, 41.205325], [-3.603203, 41.205505], [-3.603206, 41.205507], [-3.603472, 41.205646], [-3.603567, 41.205695], [-3.603717, 41.205794], [-3.60398, 41.205966], [-3.604293, 41.206147], [-3.604499, 41.206266], [-3.604763, 41.206468], [-3.604975, 41.206506], [-3.605177, 41.206562], [-3.605577, 41.206841], [-3.606377, 41.207191], [-3.606559, 41.207288], [-3.606779, 41.207404], [-3.606999, 41.207566], [-3.607032, 41.20759], [-3.6071, 41.207633], [-3.607177, 41.207682], [-3.607264, 41.207724], [-3.607372, 41.207778], [-3.607442, 41.207823], [-3.607466, 41.207839], [-3.607535, 41.207883], [-3.607631, 41.207916], [-3.607789, 41.20797], [-3.608041, 41.208064], [-3.60816, 41.208109], [-3.608357, 41.208273], [-3.608602, 41.208485], [-3.608723, 41.208589], [-3.608812, 41.208665], [-3.609088, 41.208868], [-3.609221, 41.208965], [-3.609565, 41.209147], [-3.609661, 41.209209], [-3.609689, 41.209225], [-3.609715, 41.209242], [-3.609608, 41.209311], [-3.60956, 41.20934], [-3.609432, 41.209415], [-3.609371, 41.209445], [-3.609218, 41.20952], [-3.608923, 41.209638], [-3.608897, 41.209619], [-3.608869, 41.2096], [-3.608712, 41.209489], [-3.608505, 41.209342], [-3.608288, 41.209186], [-3.607524, 41.208691], [-3.607448, 41.208647], [-3.607363, 41.208596], [-3.607247, 41.208526], [-3.607189, 41.208492], [-3.607007, 41.208383], [-3.606804, 41.208263], [-3.606606, 41.208145], [-3.606229, 41.20792], [-3.605891, 41.207716], [-3.605749, 41.207631], [-3.60563, 41.207567], [-3.605502, 41.207499], [-3.605462, 41.207477], [-3.605387, 41.207437], [-3.605222, 41.207349], [-3.60481, 41.207128], [-3.604796, 41.207121], [-3.604781, 41.207113], [-3.604768, 41.207098], [-3.604714, 41.207077], [-3.604631, 41.207033], [-3.60442, 41.206922]]]}}, {"type": "Feature", "properties": {"ref": "40059A00809002", "nombre": "Cañada Real", "tipo": "via pecuaria", "clase": "cañada", "municipio": "Cerezo de Abajo", "area_m2": 149908, "fuente": "Catastro · parcela de dominio público", "nombre_catastro": "Cañada Real"}, "geometry": {"type": "Polygon", "coordinates": [[[-3.617426, 41.223933], [-3.617411, 41.224016], [-3.617348, 41.223999], [-3.617342, 41.224014], [-3.616916, 41.223904], [-3.616741, 41.223857], [-3.616742, 41.223847], [-3.616737, 41.223833], [-3.616733, 41.223824], [-3.616716, 41.223767], [-3.616653, 41.223655], [-3.616618, 41.223571], [-3.616601, 41.223474], [-3.616654, 41.223369], [-3.616669, 41.223336], [-3.61682, 41.223029], [-3.616941, 41.222784], [-3.617038, 41.222673], [-3.617021, 41.222661], [-3.617054, 41.222617], [-3.617205, 41.222442], [-3.617214, 41.22243], [-3.617259, 41.222377], [-3.617307, 41.22232], [-3.617389, 41.222223], [-3.617467, 41.22213], [-3.617517, 41.22207], [-3.617542, 41.222041], [-3.617575, 41.222001], [-3.617631, 41.221935], [-3.617641, 41.221893], [-3.617655, 41.221844], [-3.617653, 41.221804], [-3.617651, 41.221755], [-3.617642, 41.221723], [-3.61762, 41.221641], [-3.617596, 41.221565], [-3.617559, 41.221442], [-3.617552, 41.221415], [-3.61753, 41.221363], [-3.617443, 41.221159], [-3.617412, 41.221085], [-3.617395, 41.221044], [-3.617371, 41.220984], [-3.617336, 41.220892], [-3.617324, 41.220859], [-3.617316, 41.220839], [-3.617309, 41.220816], [-3.617276, 41.22072], [-3.617284, 41.220622], [-3.6173, 41.220476], [-3.617302, 41.220457], [-3.617308, 41.220323], [-3.617314, 41.220181], [-3.617289, 41.219995], [-3.617267, 41.219837], [-3.617241, 41.219575], [-3.617301, 41.219354], [-3.617407, 41.219192], [-3.617452, 41.219141], [-3.617473, 41.219116], [-3.617629, 41.218936], [-3.617656, 41.2189], [-3.617691, 41.218855], [-3.617722, 41.218815], [-3.617793, 41.218725], [-3.617804, 41.218708], [-3.618024, 41.21847], [-3.618277, 41.218182], [-3.618422, 41.217928], [-3.618567, 41.217443], [-3.618574, 41.217345], [-3.618586, 41.217202], [-3.618547, 41.216987], [-3.61844, 41.216864], [-3.618395, 41.216813], [-3.618242, 41.216623], [-3.618138, 41.216486], [-3.618005, 41.216309], [-3.617906, 41.216177], [-3.617838, 41.216088], [-3.617767, 41.215997], [-3.61755, 41.215721], [-3.617415, 41.21557], [-3.617352, 41.215499], [-3.617163, 41.215352], [-3.617073, 41.215263], [-3.616993, 41.215183], [-3.6168, 41.214983], [-3.616735, 41.214922], [-3.616718, 41.214906], [-3.616375, 41.214584], [-3.616102, 41.214303], [-3.61599, 41.214177], [-3.615949, 41.214131], [-3.615832, 41.214034], [-3.615628, 41.213853], [-3.615431, 41.213663], [-3.615374, 41.213608], [-3.615184, 41.213464], [-3.614681, 41.213236], [-3.61443, 41.213111], [-3.614311, 41.213053], [-3.614042, 41.212899], [-3.613682, 41.212724], [-3.613664, 41.212715], [-3.613568, 41.212669], [-3.613284, 41.212541], [-3.61301, 41.212423], [-3.612944, 41.212395], [-3.612815, 41.212317], [-3.612739, 41.212271], [-3.612572, 41.212155], [-3.61254, 41.212134], [-3.61232, 41.211987], [-3.612228, 41.211926], [-3.611884, 41.211755], [-3.611801, 41.211712], [-3.611625, 41.211597], [-3.611463, 41.211484], [-3.611241, 41.211326], [-3.611021, 41.211141], [-3.610779, 41.210936], [-3.6106, 41.210808], [-3.610494, 41.210732], [-3.610483, 41.210724], [-3.610096, 41.210448], [-3.609868, 41.210262], [-3.609566, 41.210017], [-3.609559, 41.210011], [-3.609288, 41.209862], [-3.609069, 41.209742], [-3.608923, 41.209638], [-3.609218, 41.20952], [-3.609371, 41.209445], [-3.609432, 41.209415], [-3.60956, 41.20934], [-3.609608, 41.209311], [-3.609715, 41.209242], [-3.610094, 41.209481], [-3.610332, 41.209603], [-3.610549, 41.209763], [-3.610602, 41.209813], [-3.610792, 41.209996], [-3.610901, 41.210107], [-3.611005, 41.210212], [-3.611084, 41.21031], [-3.611175, 41.210422], [-3.61138, 41.210611], [-3.611553, 41.210699], [-3.61159, 41.210718], [-3.611605, 41.210726], [-3.611654, 41.210752], [-3.611836, 41.210886], [-3.612107, 41.211067], [-3.612317, 41.211198], [-3.612345, 41.211216], [-3.612435, 41.211272], [-3.612679, 41.211386], [-3.61307, 41.211572], [-3.613204, 41.211637], [-3.613234, 41.211652], [-3.613464, 41.211765], [-3.613655, 41.21184], [-3.613792, 41.211895], [-3.613887, 41.211934], [-3.61413, 41.212034], [-3.614334, 41.212184], [-3.614399, 41.212231], [-3.614646, 41.2124], [-3.615202, 41.212706], [-3.615691, 41.212951], [-3.615964, 41.213059], [-3.616198, 41.213158], [-3.616214, 41.213173], [-3.616227, 41.213187], [-3.616369, 41.213323], [-3.616596, 41.213679], [-3.616833, 41.213976], [-3.616975, 41.214094], [-3.617168, 41.214246], [-3.617419, 41.214431], [-3.61752, 41.214636], [-3.617626, 41.214789], [-3.617753, 41.2149], [-3.617757, 41.214903], [-3.617771, 41.214916], [-3.61783, 41.214967], [-3.617946, 41.215086], [-3.618081, 41.215223], [-3.618385, 41.215539], [-3.618785, 41.21605], [-3.618812, 41.216083], [-3.618988, 41.216296], [-3.619083, 41.216413], [-3.619171, 41.21652], [-3.619255, 41.216631], [-3.619275, 41.216657], [-3.619357, 41.216784], [-3.619451, 41.21701], [-3.619502, 41.217173], [-3.619505, 41.217345], [-3.619505, 41.21736], [-3.619496, 41.217431], [-3.619412, 41.217598], [-3.619334, 41.217806], [-3.619206, 41.21809], [-3.619072, 41.218355], [-3.618928, 41.218563], [-3.618754, 41.218797], [-3.618554, 41.219111], [-3.618539, 41.219135], [-3.618534, 41.219143], [-3.618489, 41.219231], [-3.618425, 41.219356], [-3.618319, 41.219564], [-3.618192, 41.219858], [-3.618157, 41.220095], [-3.618149, 41.22038], [-3.618168, 41.220697], [-3.618268, 41.221013], [-3.618422, 41.221304], [-3.618446, 41.221345], [-3.618476, 41.2214], [-3.61849, 41.221422], [-3.618504, 41.22145], [-3.618529, 41.221492], [-3.618551, 41.221587], [-3.618545, 41.221686], [-3.618524, 41.221816], [-3.618566, 41.221907], [-3.61858, 41.221989], [-3.618506, 41.222137], [-3.618411, 41.222364], [-3.618181, 41.222619], [-3.618118, 41.22271], [-3.618101, 41.222734], [-3.618076, 41.222768], [-3.618072, 41.222775], [-3.61859, 41.222901], [-3.618654, 41.222917], [-3.620175, 41.223286], [-3.620163, 41.223309], [-3.618644, 41.222943], [-3.618579, 41.222927], [-3.618053, 41.2228], [-3.618023, 41.222842], [-3.617866, 41.223059], [-3.617848, 41.223083], [-3.617781, 41.223175], [-3.617751, 41.223216], [-3.617675, 41.223321], [-3.617649, 41.223372], [-3.617599, 41.223475], [-3.617572, 41.223531], [-3.61754, 41.223596], [-3.617511, 41.223656], [-3.617486, 41.223704], [-3.617466, 41.223779], [-3.617463, 41.223785], [-3.617448, 41.223838], [-3.617426, 41.223933]]]}}, {"type": "Feature", "properties": {"ref": "40060A10709015", "nombre": "Cañada Real", "tipo": "via pecuaria", "clase": "cañada", "municipio": "Cerezo de Arriba", "area_m2": 116594, "fuente": "Catastro · parcela de dominio público", "nombre_catastro": "Cañada Real"}, "geometry": {"type": "Polygon", "coordinates": [[[-3.562527, 41.244909], [-3.562772, 41.244989], [-3.562725, 41.24533], [-3.562579, 41.246247], [-3.562435, 41.246706], [-3.561992, 41.247391], [-3.56166, 41.247839], [-3.561405, 41.248091], [-3.561056, 41.248309], [-3.560745, 41.24845], [-3.560411, 41.248606], [-3.560062, 41.248797], [-3.559664, 41.24902], [-3.559428, 41.249183], [-3.559252, 41.249366], [-3.559003, 41.249646], [-3.558416, 41.250377], [-3.557949, 41.250751], [-3.557352, 41.251108], [-3.557034, 41.250973], [-3.556222, 41.250643], [-3.555396, 41.250347], [-3.554767, 41.250104], [-3.554258, 41.249964], [-3.553593, 41.249779], [-3.553215, 41.24967], [-3.552665, 41.249457], [-3.5524, 41.249244], [-3.552226, 41.248983], [-3.551817, 41.24848], [-3.551119, 41.247864], [-3.550359, 41.247255], [-3.550171, 41.247075], [-3.549978, 41.246889], [-3.549934, 41.246846], [-3.549568, 41.246446], [-3.549627, 41.24637], [-3.549634, 41.246379], [-3.549898, 41.24673], [-3.550057, 41.246825], [-3.550279, 41.246958], [-3.550532, 41.247109], [-3.550615, 41.247161], [-3.550729, 41.247242], [-3.550904, 41.247371], [-3.550916, 41.24738], [-3.551144, 41.247506], [-3.551195, 41.247538], [-3.551264, 41.247582], [-3.551825, 41.247874], [-3.553459, 41.248723], [-3.553545, 41.248767], [-3.554137, 41.249073], [-3.554359, 41.249168], [-3.554791, 41.249353], [-3.555317, 41.249547], [-3.555402, 41.249577], [-3.555446, 41.249593], [-3.556248, 41.24988], [-3.55648, 41.249964], [-3.556865, 41.25007], [-3.557189, 41.250159], [-3.55767, 41.249772], [-3.557746, 41.249712], [-3.558091, 41.249424], [-3.558368, 41.249225], [-3.558667, 41.249014], [-3.558814, 41.248835], [-3.558945, 41.248674], [-3.559038, 41.24856], [-3.559139, 41.248438], [-3.559313, 41.248223], [-3.559409, 41.248106], [-3.559694, 41.248035], [-3.559791, 41.248011], [-3.560042, 41.247949], [-3.560175, 41.247916], [-3.560443, 41.247582], [-3.560491, 41.247489], [-3.560694, 41.247182], [-3.560703, 41.247167], [-3.560797, 41.246995], [-3.561028, 41.246573], [-3.561213, 41.246218], [-3.561267, 41.246121], [-3.561354, 41.246046], [-3.561413, 41.245996], [-3.561421, 41.245989], [-3.561431, 41.245981], [-3.561456, 41.245959], [-3.561532, 41.245915], [-3.561542, 41.245908], [-3.561545, 41.245908], [-3.561686, 41.245879], [-3.561733, 41.245869], [-3.561865, 41.245849], [-3.561985, 41.245814], [-3.562078, 41.245779], [-3.562125, 41.245621], [-3.56214, 41.245573], [-3.562197, 41.245409], [-3.562236, 41.245293], [-3.562238, 41.245291], [-3.562305, 41.24519], [-3.562312, 41.245178], [-3.56232, 41.24517], [-3.562405, 41.245085], [-3.562419, 41.24506], [-3.56251, 41.244904], [-3.562527, 41.244909]]]}}, {"type": "Feature", "properties": {"ref": "40060A00309003", "nombre": "Cañada Real", "tipo": "via pecuaria", "clase": "cañada", "municipio": "Cerezo de Arriba", "area_m2": 2286, "fuente": "Catastro · parcela de dominio público", "nombre_catastro": "Cañada Real"}, "geometry": {"type": "Polygon", "coordinates": [[[-3.562792, 41.244845], [-3.562772, 41.244989], [-3.562527, 41.244909], [-3.56251, 41.244904], [-3.562552, 41.244786], [-3.562512, 41.24455], [-3.56248, 41.244286], [-3.562503, 41.244278], [-3.562492, 41.244264], [-3.562341, 41.244025], [-3.562507, 41.243962], [-3.562328, 41.243689], [-3.562285, 41.243626], [-3.562272, 41.243606], [-3.562104, 41.243684], [-3.562072, 41.243646], [-3.562069, 41.243615], [-3.562053, 41.243422], [-3.562071, 41.243292], [-3.562308, 41.243628], [-3.562583, 41.244059], [-3.562707, 41.24455], [-3.562792, 41.244845]]]}}, {"type": "Feature", "properties": {"ref": "40060A00309015", "nombre": "Cañada Real", "tipo": "via pecuaria", "clase": "cañada", "municipio": "Cerezo de Arriba", "area_m2": 4966, "fuente": "Catastro · parcela de dominio público", "nombre_catastro": "Cañada Real"}, "geometry": {"type": "Polygon", "coordinates": [[[-3.549568, 41.246446], [-3.549934, 41.246846], [-3.549978, 41.246889], [-3.550171, 41.247075], [-3.550359, 41.247255], [-3.551119, 41.247864], [-3.551817, 41.24848], [-3.552226, 41.248983], [-3.5524, 41.249244], [-3.552665, 41.249457], [-3.553215, 41.24967], [-3.553593, 41.249779], [-3.554258, 41.249964], [-3.554767, 41.250104], [-3.555396, 41.250347], [-3.556222, 41.250643], [-3.557034, 41.250973], [-3.557352, 41.251108], [-3.558411, 41.25156], [-3.558743, 41.251703], [-3.55872, 41.251745], [-3.558381, 41.251598], [-3.557006, 41.251012], [-3.556197, 41.250683], [-3.55537, 41.250388], [-3.554743, 41.250145], [-3.554238, 41.250006], [-3.553572, 41.249822], [-3.55319, 41.249711], [-3.55263, 41.249494], [-3.55235, 41.249269], [-3.552173, 41.249004], [-3.551768, 41.248506], [-3.551075, 41.247895], [-3.550316, 41.247286], [-3.549886, 41.246873], [-3.54953, 41.246484], [-3.549568, 41.246446]]]}}, {"type": "Feature", "properties": {"ref": "40223A01009003", "nombre": "Cordel Carrancha", "tipo": "via pecuaria", "clase": "cordel", "municipio": "Santo Tomé del Puerto", "area_m2": 48058, "fuente": "Catastro · parcela de dominio público", "nombre_catastro": "Cordel Carrancha"}, "geometry": {"type": "Polygon", "coordinates": [[[-3.572823, 41.190137], [-3.572912, 41.190207], [-3.572697, 41.190306], [-3.572693, 41.190307], [-3.57269, 41.190279], [-3.572664, 41.190251], [-3.572542, 41.190165], [-3.572487, 41.190125], [-3.572312, 41.190012], [-3.572213, 41.189951], [-3.57217, 41.18992], [-3.572063, 41.189842], [-3.571951, 41.189766], [-3.571856, 41.189703], [-3.571733, 41.189622], [-3.571569, 41.189525], [-3.571381, 41.189421], [-3.57129, 41.189369], [-3.571201, 41.18932], [-3.571116, 41.189274], [-3.571025, 41.189227], [-3.570833, 41.189142], [-3.570727, 41.189097], [-3.570664, 41.189072], [-3.570604, 41.189017], [-3.570564, 41.188978], [-3.570512, 41.188938], [-3.570454, 41.188894], [-3.570395, 41.188858], [-3.570334, 41.188824], [-3.570272, 41.188795], [-3.570222, 41.188737], [-3.570169, 41.188688], [-3.570107, 41.188624], [-3.570018, 41.188548], [-3.569923, 41.188472], [-3.569796, 41.188379], [-3.569778, 41.188365], [-3.569692, 41.188299], [-3.569666, 41.188279], [-3.569647, 41.188267], [-3.569607, 41.18824], [-3.5696, 41.188236], [-3.569534, 41.188209], [-3.569464, 41.188179], [-3.5694, 41.188146], [-3.569332, 41.188109], [-3.569278, 41.188075], [-3.56921, 41.188028], [-3.569154, 41.187986], [-3.569085, 41.187926], [-3.569027, 41.187869], [-3.568987, 41.187826], [-3.56896, 41.187799], [-3.568922, 41.18777], [-3.568873, 41.187736], [-3.568835, 41.187716], [-3.568791, 41.187695], [-3.568744, 41.187683], [-3.568708, 41.187676], [-3.568664, 41.187676], [-3.568617, 41.187677], [-3.568578, 41.187666], [-3.568534, 41.18765], [-3.56846, 41.187612], [-3.568371, 41.187564], [-3.568256, 41.187503], [-3.568055, 41.187396], [-3.567874, 41.187301], [-3.567716, 41.187208], [-3.567288, 41.186967], [-3.566944, 41.186773], [-3.566832, 41.186712], [-3.566761, 41.186672], [-3.566549, 41.186566], [-3.566291, 41.186435], [-3.566235, 41.186407], [-3.566065, 41.186322], [-3.565763, 41.186171], [-3.565706, 41.186144], [-3.565526, 41.186059], [-3.565345, 41.185973], [-3.565292, 41.185949], [-3.565259, 41.185934], [-3.565142, 41.185888], [-3.564985, 41.185818], [-3.56482, 41.185739], [-3.564699, 41.185681], [-3.564508, 41.185586], [-3.56448, 41.185572], [-3.564356, 41.185508], [-3.564293, 41.185474], [-3.564251, 41.185451], [-3.564147, 41.185397], [-3.564064, 41.185359], [-3.563998, 41.185335], [-3.563928, 41.185312], [-3.563876, 41.185294], [-3.563844, 41.185281], [-3.563771, 41.185252], [-3.563694, 41.185216], [-3.563579, 41.185158], [-3.563497, 41.18511], [-3.563475, 41.185097], [-3.563398, 41.185051], [-3.563302, 41.184989], [-3.563214, 41.18493], [-3.56312, 41.184874], [-3.56307, 41.184846], [-3.562988, 41.184801], [-3.562828, 41.184722], [-3.5627, 41.184665], [-3.562573, 41.184613], [-3.562473, 41.184573], [-3.562188, 41.184469], [-3.561927, 41.184395], [-3.561638, 41.184313], [-3.561411, 41.184247], [-3.56135, 41.18423], [-3.561308, 41.184217], [-3.561293, 41.18421], [-3.561275, 41.184202], [-3.561232, 41.184174], [-3.561158, 41.184123], [-3.561059, 41.184046], [-3.560985, 41.183988], [-3.560902, 41.183931], [-3.560784, 41.183839], [-3.5607, 41.183771], [-3.560589, 41.183674], [-3.560564, 41.183652], [-3.560444, 41.183541], [-3.560471, 41.183521], [-3.560586, 41.183433], [-3.560709, 41.18335], [-3.560834, 41.183273], [-3.560911, 41.183234], [-3.560922, 41.183245], [-3.560932, 41.183254], [-3.560998, 41.183323], [-3.561058, 41.183394], [-3.561159, 41.18347], [-3.561352, 41.183603], [-3.561466, 41.183666], [-3.561559, 41.183731], [-3.561608, 41.183774], [-3.561666, 41.183826], [-3.561735, 41.183898], [-3.561783, 41.18394], [-3.561882, 41.183985], [-3.561893, 41.183989], [-3.561981, 41.184026], [-3.562126, 41.18409], [-3.562221, 41.184116], [-3.562234, 41.18412], [-3.56238, 41.184119], [-3.562458, 41.184134], [-3.562551, 41.184168], [-3.56256, 41.184172], [-3.562598, 41.184191], [-3.56265, 41.184218], [-3.562694, 41.184261], [-3.56274, 41.184294], [-3.562748, 41.1843], [-3.562804, 41.184339], [-3.56288, 41.184391], [-3.562978, 41.184452], [-3.563077, 41.184504], [-3.563177, 41.184554], [-3.563203, 41.184566], [-3.563291, 41.184602], [-3.5634, 41.184658], [-3.563485, 41.184709], [-3.563517, 41.184727], [-3.563564, 41.184762], [-3.563716, 41.184836], [-3.56375, 41.184849], [-3.56379, 41.18486], [-3.56387, 41.18488], [-3.563923, 41.184896], [-3.563943, 41.184903], [-3.564013, 41.184923], [-3.564087, 41.184953], [-3.564137, 41.184975], [-3.564153, 41.184981], [-3.564232, 41.18502], [-3.5643, 41.185049], [-3.564398, 41.18508], [-3.564495, 41.185114], [-3.56459, 41.185158], [-3.564714, 41.185218], [-3.56478, 41.185256], [-3.564819, 41.185279], [-3.565045, 41.185402], [-3.56525, 41.185508], [-3.565411, 41.185587], [-3.565588, 41.185671], [-3.565678, 41.185704], [-3.565684, 41.185706], [-3.565909, 41.185802], [-3.566133, 41.185909], [-3.566243, 41.185961], [-3.566358, 41.186017], [-3.566387, 41.18603], [-3.566697, 41.186196], [-3.56674, 41.186218], [-3.566933, 41.186324], [-3.567113, 41.18642], [-3.567194, 41.186463], [-3.5674, 41.186585], [-3.567574, 41.186682], [-3.567689, 41.186755], [-3.567853, 41.186859], [-3.567979, 41.186937], [-3.568051, 41.186981], [-3.568179, 41.187057], [-3.568342, 41.187145], [-3.568494, 41.187207], [-3.568616, 41.187259], [-3.568754, 41.187334], [-3.568814, 41.187373], [-3.568818, 41.187375], [-3.568939, 41.187453], [-3.568982, 41.187482], [-3.569091, 41.187559], [-3.56914, 41.187596], [-3.569186, 41.187632], [-3.569272, 41.187709], [-3.569359, 41.187784], [-3.569423, 41.187833], [-3.569484, 41.187881], [-3.56958, 41.187952], [-3.569594, 41.187963], [-3.56966, 41.188008], [-3.569688, 41.188028], [-3.569773, 41.188082], [-3.569787, 41.18809], [-3.569881, 41.188144], [-3.569942, 41.188173], [-3.569974, 41.18819], [-3.570057, 41.188228], [-3.570257, 41.188312], [-3.570303, 41.188335], [-3.570534, 41.188443], [-3.570586, 41.188468], [-3.570739, 41.188548], [-3.570967, 41.188669], [-3.57109, 41.188741], [-3.571215, 41.188813], [-3.571396, 41.188918], [-3.571474, 41.188952], [-3.571556, 41.188984], [-3.571593, 41.189045], [-3.571631, 41.189114], [-3.571684, 41.189192], [-3.571729, 41.189251], [-3.571806, 41.189342], [-3.57186, 41.189399], [-3.571926, 41.189459], [-3.571978, 41.189504], [-3.572018, 41.189543], [-3.572101, 41.189616], [-3.572167, 41.189676], [-3.572257, 41.189742], [-3.572358, 41.189805], [-3.572463, 41.189877], [-3.572587, 41.189959], [-3.572704, 41.190048], [-3.572823, 41.190137]]]}}, {"type": "Feature", "properties": {"ref": "40223A01009008", "nombre": "Cordel Carrancha", "tipo": "via pecuaria", "clase": "cordel", "municipio": "Santo Tomé del Puerto", "area_m2": 2162, "fuente": "Catastro · parcela de dominio público", "nombre_catastro": "Cordel Carrancha"}, "geometry": {"type": "Polygon", "coordinates": [[[-3.560432, 41.182754], [-3.560662, 41.18295], [-3.560552, 41.183053], [-3.5605, 41.18311], [-3.560493, 41.183118], [-3.560338, 41.182951], [-3.559673, 41.182294], [-3.559705, 41.18226], [-3.559763, 41.182154], [-3.559768, 41.182159], [-3.559827, 41.182207], [-3.559882, 41.182245], [-3.560201, 41.182546], [-3.560273, 41.182606], [-3.560432, 41.182754]]]}}, {"type": "Feature", "properties": {"ref": "40223A00409010", "nombre": "Cordel Carrancha", "tipo": "via pecuaria", "clase": "cordel", "municipio": "Santo Tomé del Puerto", "area_m2": 6145, "fuente": "Catastro · parcela de dominio público", "nombre_catastro": "Cordel Carrancha"}, "geometry": {"type": "Polygon", "coordinates": [[[-3.575761, 41.192571], [-3.575855, 41.192569], [-3.575859, 41.192569], [-3.575835, 41.19261], [-3.575825, 41.192627], [-3.575879, 41.192646], [-3.575942, 41.192669], [-3.575789, 41.192785], [-3.575733, 41.192751], [-3.57569, 41.192718], [-3.575632, 41.192678], [-3.57556, 41.192622], [-3.575463, 41.192536], [-3.575381, 41.192455], [-3.575272, 41.192387], [-3.575145, 41.192297], [-3.575064, 41.192239], [-3.575017, 41.192208], [-3.57494, 41.192158], [-3.574906, 41.192136], [-3.574829, 41.192066], [-3.574752, 41.192001], [-3.57465, 41.191938], [-3.5746, 41.19191], [-3.574499, 41.191831], [-3.574471, 41.191814], [-3.574357, 41.191731], [-3.574312, 41.19169], [-3.574089, 41.191489], [-3.574064, 41.191481], [-3.574044, 41.19148], [-3.574026, 41.191479], [-3.573989, 41.191445], [-3.573964, 41.191421], [-3.573942, 41.191401], [-3.573899, 41.191362], [-3.573797, 41.191244], [-3.57372, 41.191149], [-3.573654, 41.191091], [-3.573584, 41.191018], [-3.573462, 41.190903], [-3.573434, 41.190884], [-3.573396, 41.190862], [-3.573355, 41.190849], [-3.573312, 41.190826], [-3.573248, 41.190777], [-3.573221, 41.190757], [-3.573132, 41.190683], [-3.572987, 41.190565], [-3.572879, 41.190477], [-3.572832, 41.190433], [-3.572782, 41.190383], [-3.572726, 41.190335], [-3.57271, 41.190321], [-3.572693, 41.190307], [-3.572697, 41.190306], [-3.572912, 41.190207], [-3.572938, 41.190228], [-3.573072, 41.190334], [-3.573141, 41.190382], [-3.573169, 41.1904], [-3.573285, 41.190499], [-3.573332, 41.190536], [-3.573374, 41.190568], [-3.573415, 41.1906], [-3.573437, 41.190625], [-3.573491, 41.190689], [-3.573547, 41.190743], [-3.573604, 41.190791], [-3.573636, 41.190819], [-3.573698, 41.190911], [-3.573766, 41.191008], [-3.573809, 41.19108], [-3.573891, 41.191178], [-3.574011, 41.191293], [-3.574185, 41.19142], [-3.574381, 41.191554], [-3.574586, 41.191694], [-3.574772, 41.191819], [-3.574814, 41.191849], [-3.574946, 41.19194], [-3.575089, 41.192049], [-3.575167, 41.192112], [-3.575187, 41.192128], [-3.575231, 41.192166], [-3.575285, 41.192214], [-3.575293, 41.192221], [-3.575336, 41.19226], [-3.575395, 41.192311], [-3.575401, 41.192316], [-3.575488, 41.192396], [-3.575515, 41.192421], [-3.575571, 41.192458], [-3.575598, 41.192476], [-3.575635, 41.1925], [-3.575688, 41.192532], [-3.575723, 41.19255], [-3.575761, 41.192571]]]}}, {"type": "Feature", "properties": {"ref": "40059A00309014", "nombre": "Vereda", "tipo": "via pecuaria", "clase": "vereda", "municipio": "Cerezo de Abajo", "area_m2": 1217, "fuente": "Catastro · parcela de dominio público", "nombre_catastro": "Vereda"}, "geometry": {"type": "Polygon", "coordinates": [[[-3.591096, 41.221865], [-3.591116, 41.22188], [-3.591116, 41.2219], [-3.591118, 41.222387], [-3.590988, 41.222636], [-3.590898, 41.222784], [-3.590824, 41.222905], [-3.590644, 41.223196], [-3.59059, 41.223289], [-3.590466, 41.223502], [-3.590341, 41.223734], [-3.590307, 41.223799], [-3.590234, 41.223945], [-3.590215, 41.223921], [-3.590194, 41.223896], [-3.590249, 41.223784], [-3.590352, 41.223594], [-3.59041, 41.223487], [-3.590589, 41.223178], [-3.590654, 41.223073], [-3.590768, 41.222888], [-3.590779, 41.222871], [-3.590932, 41.222619], [-3.591062, 41.222373], [-3.591062, 41.222352], [-3.591057, 41.221901], [-3.591042, 41.221875], [-3.591031, 41.221858], [-3.591013, 41.221847], [-3.591057, 41.221853], [-3.591075, 41.221858], [-3.591096, 41.221865]]]}}, {"type": "Feature", "properties": {"ref": "40059A00209004", "nombre": "Vereda Alto el Guijar", "tipo": "via pecuaria", "clase": "vereda", "municipio": "Cerezo de Abajo", "area_m2": 1584, "fuente": "Catastro · parcela de dominio público", "nombre_catastro": "Vereda Alto el Guijar"}, "geometry": {"type": "Polygon", "coordinates": [[[-3.594943, 41.230172], [-3.594936, 41.230234], [-3.594931, 41.230269], [-3.594923, 41.230315], [-3.594897, 41.23045], [-3.594894, 41.230472], [-3.594863, 41.23067], [-3.594831, 41.230925], [-3.594802, 41.231197], [-3.594776, 41.231471], [-3.594772, 41.231517], [-3.594752, 41.231735], [-3.594729, 41.231948], [-3.594726, 41.231981], [-3.594687, 41.232213], [-3.594605, 41.232486], [-3.594438, 41.232872], [-3.59443, 41.232907], [-3.594428, 41.232941], [-3.594431, 41.232972], [-3.594385, 41.232955], [-3.594379, 41.232952], [-3.594323, 41.232931], [-3.594344, 41.232913], [-3.594363, 41.232888], [-3.594382, 41.232857], [-3.594515, 41.232549], [-3.594547, 41.232475], [-3.594629, 41.232205], [-3.594664, 41.231991], [-3.594666, 41.231975], [-3.594693, 41.231731], [-3.594718, 41.231467], [-3.59472, 41.231444], [-3.594743, 41.231193], [-3.594771, 41.23092], [-3.594803, 41.230664], [-3.594838, 41.230443], [-3.594873, 41.230263], [-3.594879, 41.230207], [-3.594884, 41.230173], [-3.594914, 41.230173], [-3.594943, 41.230172]]]}}, {"type": "Feature", "properties": {"ref": "40059A00309003", "nombre": "Vereda Alto el Guijar", "tipo": "via pecuaria", "clase": "vereda", "municipio": "Cerezo de Abajo", "area_m2": 6314, "fuente": "Catastro · parcela de dominio público", "nombre_catastro": "Vereda Alto el Guijar"}, "geometry": {"type": "Polygon", "coordinates": [[[-3.597475, 41.227824], [-3.597521, 41.227833], [-3.597471, 41.227878], [-3.597425, 41.22792], [-3.597415, 41.227883], [-3.597392, 41.227849], [-3.597367, 41.22782], [-3.596557, 41.226975], [-3.59633, 41.226738], [-3.595994, 41.22638], [-3.595779, 41.226153], [-3.595159, 41.225493], [-3.595033, 41.22536], [-3.594794, 41.225127], [-3.594628, 41.225043], [-3.594431, 41.224972], [-3.594747, 41.225191], [-3.59496, 41.225405], [-3.595049, 41.225533], [-3.595112, 41.225622], [-3.595239, 41.225846], [-3.595348, 41.226072], [-3.595421, 41.226246], [-3.595438, 41.226289], [-3.595503, 41.226472], [-3.595511, 41.226496], [-3.595556, 41.226661], [-3.595568, 41.226707], [-3.595603, 41.226903], [-3.595611, 41.226942], [-3.595632, 41.227123], [-3.595642, 41.227212], [-3.595655, 41.227499], [-3.595654, 41.22752], [-3.595648, 41.227772], [-3.595633, 41.227889], [-3.595616, 41.228011], [-3.595566, 41.228222], [-3.595555, 41.228257], [-3.595507, 41.228407], [-3.595505, 41.228418], [-3.595439, 41.228607], [-3.595406, 41.228693], [-3.595373, 41.228779], [-3.595322, 41.228908], [-3.595316, 41.228925], [-3.59527, 41.229032], [-3.59523, 41.229115], [-3.595192, 41.229188], [-3.595186, 41.229202], [-3.595154, 41.229267], [-3.595111, 41.229351], [-3.595067, 41.229439], [-3.595021, 41.229534], [-3.594982, 41.229641], [-3.594956, 41.229815], [-3.594955, 41.229917], [-3.594956, 41.229943], [-3.594956, 41.230078], [-3.594943, 41.230172], [-3.594914, 41.230173], [-3.594884, 41.230173], [-3.594896, 41.230074], [-3.594896, 41.229944], [-3.594896, 41.229817], [-3.594923, 41.229633], [-3.594964, 41.229522], [-3.595009, 41.229425], [-3.595055, 41.229335], [-3.595097, 41.229251], [-3.595137, 41.229172], [-3.595145, 41.229154], [-3.595173, 41.229099], [-3.595213, 41.229017], [-3.59526, 41.22891], [-3.595317, 41.228766], [-3.595381, 41.228595], [-3.595446, 41.228408], [-3.595508, 41.228214], [-3.595557, 41.228005], [-3.595589, 41.227768], [-3.595596, 41.227498], [-3.595582, 41.227214], [-3.595552, 41.226947], [-3.59551, 41.226715], [-3.595453, 41.226506], [-3.595381, 41.226302], [-3.595292, 41.226086], [-3.595184, 41.225863], [-3.595059, 41.225643], [-3.59491, 41.22543], [-3.594702, 41.22522], [-3.594391, 41.225005], [-3.593933, 41.224777], [-3.593262, 41.22453], [-3.592812, 41.2244], [-3.592688, 41.224365], [-3.592419, 41.224287], [-3.592331, 41.224261], [-3.59231, 41.224256], [-3.592284, 41.224252], [-3.592253, 41.224254], [-3.592238, 41.224257], [-3.592115, 41.224124], [-3.592154, 41.224146], [-3.592222, 41.224174], [-3.592288, 41.224198], [-3.59233, 41.224214], [-3.592583, 41.224286], [-3.592688, 41.224317], [-3.592811, 41.224352], [-3.593287, 41.22449], [-3.593857, 41.2247], [-3.593965, 41.22474], [-3.594641, 41.225002], [-3.594841, 41.2251], [-3.594891, 41.225148], [-3.595082, 41.225333], [-3.595168, 41.225425], [-3.595637, 41.225924], [-3.596157, 41.226475], [-3.596377, 41.226711], [-3.597414, 41.227794], [-3.597445, 41.227811], [-3.597475, 41.227824]]]}}, {"type": "Feature", "properties": {"ref": "40059A00309005", "nombre": "Vereda del Palancar", "tipo": "via pecuaria", "clase": "vereda", "municipio": "Cerezo de Abajo", "area_m2": 2661, "fuente": "Catastro · parcela de dominio público", "nombre_catastro": "Vereda del Palancar"}, "geometry": {"type": "Polygon", "coordinates": [[[-3.590044, 41.230593], [-3.589635, 41.230338], [-3.589437, 41.23019], [-3.589384, 41.230115], [-3.589369, 41.230056], [-3.589368, 41.229995], [-3.589381, 41.229925], [-3.589409, 41.229831], [-3.589476, 41.22964], [-3.589516, 41.229534], [-3.589612, 41.22927], [-3.589636, 41.22921], [-3.589786, 41.228805], [-3.589831, 41.228681], [-3.589922, 41.228436], [-3.589926, 41.228429], [-3.589935, 41.228403], [-3.590027, 41.228155], [-3.590084, 41.228002], [-3.590196, 41.227696], [-3.590302, 41.22741], [-3.59031, 41.227388], [-3.590436, 41.227034], [-3.590457, 41.226966], [-3.590501, 41.226816], [-3.590527, 41.226657], [-3.590541, 41.226474], [-3.590547, 41.22627], [-3.590553, 41.226068], [-3.590555, 41.226001], [-3.590569, 41.226033], [-3.590582, 41.226077], [-3.590611, 41.226161], [-3.590607, 41.226273], [-3.590599, 41.226478], [-3.590586, 41.226662], [-3.59056, 41.226823], [-3.590494, 41.227042], [-3.590359, 41.227421], [-3.590273, 41.227655], [-3.590142, 41.228013], [-3.589984, 41.228436], [-3.589931, 41.228582], [-3.58989, 41.228692], [-3.589671, 41.229281], [-3.589534, 41.22965], [-3.589467, 41.229838], [-3.589439, 41.22993], [-3.589428, 41.229994], [-3.589428, 41.23004], [-3.589429, 41.23005], [-3.589441, 41.230103], [-3.589489, 41.230169], [-3.589681, 41.23031], [-3.590044, 41.230534], [-3.590044, 41.230593]]]}}, {"type": "Feature", "properties": {"ref": "40059A00209002", "nombre": "Vereda Ladera del Santo", "tipo": "via pecuaria", "clase": "vereda", "municipio": "Cerezo de Abajo", "area_m2": 3294, "fuente": "Catastro · parcela de dominio público", "nombre_catastro": "Vereda Ladera del Santo"}, "geometry": {"type": "Polygon", "coordinates": [[[-3.600881, 41.226819], [-3.600892, 41.226841], [-3.600769, 41.226878], [-3.600192, 41.227038], [-3.600171, 41.227045], [-3.599668, 41.227169], [-3.599287, 41.227252], [-3.599065, 41.227294], [-3.599003, 41.227306], [-3.598775, 41.227342], [-3.598571, 41.227375], [-3.598549, 41.227378], [-3.598387, 41.227408], [-3.598224, 41.227448], [-3.59808, 41.227499], [-3.597935, 41.227576], [-3.597768, 41.227695], [-3.597654, 41.22779], [-3.597563, 41.227865], [-3.597339, 41.228067], [-3.597124, 41.228278], [-3.597018, 41.228391], [-3.59694, 41.228475], [-3.596785, 41.228651], [-3.596735, 41.228713], [-3.596658, 41.228806], [-3.596548, 41.228942], [-3.596479, 41.229019], [-3.596428, 41.229076], [-3.596269, 41.229235], [-3.596079, 41.229401], [-3.596031, 41.229443], [-3.595872, 41.229569], [-3.595657, 41.22974], [-3.595384, 41.229941], [-3.595284, 41.230016], [-3.595084, 41.230163], [-3.595024, 41.230216], [-3.594973, 41.230264], [-3.594923, 41.230315], [-3.594931, 41.230269], [-3.594936, 41.230234], [-3.594943, 41.230172], [-3.594967, 41.230167], [-3.595004, 41.230152], [-3.595043, 41.23013], [-3.595284, 41.229953], [-3.595298, 41.229942], [-3.595613, 41.229708], [-3.595837, 41.229532], [-3.595985, 41.229415], [-3.596221, 41.229207], [-3.59628, 41.229149], [-3.596381, 41.229051], [-3.59647, 41.228947], [-3.596499, 41.228917], [-3.596607, 41.228782], [-3.596736, 41.228627], [-3.596759, 41.228599], [-3.596891, 41.228449], [-3.596935, 41.2284], [-3.597067, 41.228261], [-3.597076, 41.228251], [-3.597269, 41.228063], [-3.597294, 41.228039], [-3.597425, 41.22792], [-3.597471, 41.227878], [-3.597521, 41.227833], [-3.597668, 41.227712], [-3.597729, 41.227661], [-3.597901, 41.227539], [-3.597988, 41.227493], [-3.598051, 41.227459], [-3.598199, 41.227406], [-3.598367, 41.227366], [-3.598554, 41.22733], [-3.598721, 41.227304], [-3.59876, 41.227298], [-3.598989, 41.227262], [-3.599273, 41.227209], [-3.59941, 41.227178], [-3.599651, 41.227126], [-3.60001, 41.227036], [-3.600152, 41.227001], [-3.600192, 41.22699], [-3.600423, 41.226927], [-3.600749, 41.226836], [-3.600869, 41.226799], [-3.600881, 41.226819]]]}}, {"type": "Feature", "properties": {"ref": "40059A00509007", "nombre": "Vereda Ladera del Santo", "tipo": "via pecuaria", "clase": "vereda", "municipio": "Cerezo de Abajo", "area_m2": 4162, "fuente": "Catastro · parcela de dominio público", "nombre_catastro": "Vereda Ladera del Santo"}, "geometry": {"type": "Polygon", "coordinates": [[[-3.608868, 41.223283], [-3.608821, 41.223325], [-3.608775, 41.223356], [-3.60871, 41.223389], [-3.608642, 41.223408], [-3.60857, 41.223412], [-3.608257, 41.223377], [-3.608009, 41.223361], [-3.607788, 41.223358], [-3.607562, 41.223368], [-3.607321, 41.223386], [-3.607062, 41.22341], [-3.606956, 41.223419], [-3.606805, 41.223434], [-3.606784, 41.223436], [-3.606504, 41.223462], [-3.606236, 41.223494], [-3.606037, 41.223521], [-3.605994, 41.223527], [-3.605787, 41.223562], [-3.605618, 41.223593], [-3.605488, 41.22362], [-3.605388, 41.223646], [-3.605308, 41.223672], [-3.605238, 41.223703], [-3.605177, 41.223739], [-3.605122, 41.223779], [-3.605075, 41.223821], [-3.605032, 41.22387], [-3.604989, 41.223929], [-3.60494, 41.223998], [-3.604887, 41.224073], [-3.604828, 41.224143], [-3.604763, 41.224202], [-3.604686, 41.224255], [-3.604595, 41.224308], [-3.604483, 41.224367], [-3.604356, 41.224431], [-3.604218, 41.224503], [-3.604074, 41.224581], [-3.60393, 41.224665], [-3.603794, 41.22475], [-3.603671, 41.224837], [-3.603565, 41.224921], [-3.603475, 41.225], [-3.603403, 41.225069], [-3.603344, 41.225135], [-3.603295, 41.225201], [-3.603254, 41.225269], [-3.603214, 41.225343], [-3.603208, 41.225353], [-3.603171, 41.225422], [-3.60312, 41.225505], [-3.603062, 41.225591], [-3.602995, 41.225676], [-3.602922, 41.22576], [-3.602837, 41.225843], [-3.602738, 41.225926], [-3.602622, 41.22601], [-3.602542, 41.226064], [-3.602499, 41.226092], [-3.602383, 41.226167], [-3.602285, 41.226228], [-3.602204, 41.226278], [-3.60214, 41.22632], [-3.602088, 41.226355], [-3.602042, 41.22639], [-3.601988, 41.226428], [-3.60191, 41.226477], [-3.601765, 41.226549], [-3.601424, 41.226675], [-3.601406, 41.226681], [-3.601177, 41.226751], [-3.600892, 41.226841], [-3.600881, 41.226819], [-3.600869, 41.226799], [-3.600997, 41.226759], [-3.601177, 41.226702], [-3.6014, 41.226634], [-3.601405, 41.226632], [-3.601732, 41.22651], [-3.601874, 41.226441], [-3.601908, 41.226419], [-3.601949, 41.226394], [-3.602001, 41.226356], [-3.602048, 41.226322], [-3.602099, 41.226287], [-3.602164, 41.226245], [-3.602245, 41.226194], [-3.602343, 41.226133], [-3.60245, 41.226064], [-3.602459, 41.226059], [-3.602579, 41.225978], [-3.602694, 41.225896], [-3.602792, 41.225814], [-3.602873, 41.225734], [-3.602945, 41.225653], [-3.603009, 41.225569], [-3.603067, 41.225485], [-3.603117, 41.225402], [-3.603144, 41.225354], [-3.60316, 41.225324], [-3.6032, 41.22525], [-3.603243, 41.225179], [-3.603292, 41.225111], [-3.603354, 41.225044], [-3.603428, 41.224971], [-3.60352, 41.224891], [-3.603629, 41.224805], [-3.603754, 41.224717], [-3.603891, 41.22463], [-3.604037, 41.224545], [-3.604182, 41.224467], [-3.604321, 41.224394], [-3.604447, 41.22433], [-3.604557, 41.224273], [-3.604646, 41.224222], [-3.604719, 41.224172], [-3.604782, 41.224115], [-3.604838, 41.224047], [-3.60489, 41.223973], [-3.604938, 41.223904], [-3.604983, 41.223844], [-3.605028, 41.223794], [-3.605079, 41.223747], [-3.605137, 41.223706], [-3.605204, 41.223666], [-3.605279, 41.223633], [-3.605364, 41.223604], [-3.605467, 41.223578], [-3.605601, 41.22355], [-3.605747, 41.223522], [-3.605772, 41.223518], [-3.605982, 41.223483], [-3.606225, 41.223449], [-3.606494, 41.223418], [-3.606777, 41.223391], [-3.606804, 41.223388], [-3.606956, 41.223374], [-3.607055, 41.223365], [-3.607316, 41.223342], [-3.607559, 41.223323], [-3.607788, 41.223313], [-3.608012, 41.223316], [-3.608264, 41.223333], [-3.608579, 41.223368], [-3.608623, 41.223352], [-3.608657, 41.22333], [-3.608675, 41.223312], [-3.608754, 41.223302], [-3.608767, 41.2233], [-3.608868, 41.223283]]]}}]}